     2.100          NAVIGATION                              RINEX VERSION / TYPE
fic2rin                                 01/22/2016 00:28:19 PGM / RUN BY / DATE
                                                            END OF HEADER
25 16  1 21 16  0  0.0 -.103333964944D-03 -.648014975013D-11  .000000000000D+00
     .250000000000D+02  .363125000000D+02  .423267630796D-08 -.213154923613D+01
     .191666185856D-05  .499335955828D-02  .136345624924D-05  .515356833458D+04
     .403200000000D+06  .149011611938D-07 -.200510268583D+01 -.447034835815D-07
     .978462338415D+00  .363062500000D+03  .692707450069D+00 -.817998358629D-08
     .153934983439D-09  .100000000000D+01  .188000000000D+04  .000000000000D+00
     .240000000000D+01  .000000000000D+00  .558793544769D-08  .250000000000D+02
     .396006000000D+06  .400000000000D+01
26 16  1 21 16  0  0.0 -.220874324441D-03 -.164845914696D-10  .000000000000D+00
     .740000000000D+02  .380625000000D+02  .474555481426D-08 -.258427102300D+01
     .206753611565D-05  .738310161978D-03  .112131237984D-05  .515369582367D+04
     .403200000000D+06  .521540641785D-07 -.201185517629D+01 -.298023223877D-07
     .960497752678D+00  .359781250000D+03 -.216647867133D+00 -.850535428215D-08
     .146077513286D-09  .100000000000D+01  .188000000000D+04  .000000000000D+00
     .240000000000D+01  .000000000000D+00  .698491930962D-08  .740000000000D+02
     .396006000000D+06  .400000000000D+01
27 16  1 21 16  0  0.0  .554607249796D-04  .352429196937D-11  .000000000000D+00
     .210000000000D+02 -.131812500000D+03  .422017578726D-08  .172578019854D+01
    -.690482556820D-05  .307148008142D-02  .654347240925D-05  .515363802528D+04
     .403200000000D+06  .242143869400D-07 -.962341793101D+00  .745058059692D-07
     .969947505658D+00  .256375000000D+03  .211344325351D+00 -.809069415274D-08
    -.238581366443D-09  .100000000000D+01  .188000000000D+04  .000000000000D+00
     .240000000000D+01  .000000000000D+00  .139698386192D-08  .210000000000D+02
     .396006000000D+06  .400000000000D+01
28 16  1 21 16  0  0.0  .496898777783D-03  .250111042988D-11  .000000000000D+00
     .470000000000D+02  .345000000000D+02  .395730769489D-08  .244851123631D+01
     .155344605446D-05  .200324973557D-01  .199303030968D-06  .515362442207D+04
     .403200000000D+06  .182539224625D-06 -.193181833130D+01 -.763684511185D-07
     .989289787182D+00  .386718750000D+03 -.162853272507D+01 -.788675708652D-08
     .264296723305D-10  .100000000000D+01  .188000000000D+04  .000000000000D+00
     .240000000000D+01  .000000000000D+00 -.107102096081D-07  .470000000000D+02
     .396006000000D+06  .400000000000D+01
29 16  1 21 16  0  0.0  .652331858873D-03  .102318153949D-11  .000000000000D+00
     .460000000000D+02 -.117562500000D+03  .398766610230D-08 -.200117384378D+01
    -.609271228313D-05  .100512371864D-02  .686943531036D-05  .515363304710D+04
     .403200000000D+06 -.279396772385D-07 -.903563666951D+00  .223517417908D-07
     .975979871765D+00  .255593750000D+03 -.585872672748D+00 -.791854412486D-08
    -.140005831805D-09  .100000000000D+01  .188000000000D+04  .000000000000D+00
     .240000000000D+01  .000000000000D+00 -.102445483208D-07  .460000000000D+02
     .396006000000D+06  .400000000000D+01
30 16  1 21 16  0  0.0  .870795920491D-04  .466116034659D-11  .000000000000D+00
     .570000000000D+02  .136031250000D+03  .434196657462D-08 -.110975492920D+01
     .693835318089D-05  .166400277521D-02  .967457890511D-05  .515365543365D+04
     .403200000000D+06  .000000000000D+00 -.298298938500D+01 -.949949026108D-07
     .953940901182D+00  .189406250000D+03  .306509684716D+01 -.798426114795D-08
     .539308178636D-10  .100000000000D+01  .188000000000D+04  .000000000000D+00
     .240000000000D+01  .000000000000D+00  .325962901115D-08  .570000000000D+02
     .396006000000D+06  .400000000000D+01
32 16  1 21 16  0  0.0  .885426998138D-04  .129602995003D-10  .000000000000D+00
     .690000000000D+02  .468750000000D+01  .549201447873D-08 -.738213607434D+00
     .316649675369D-06  .113426236203D-01  .496394932270D-05  .515361684227D+04
     .403200000000D+06  .229105353355D-06  .121471861089D+01 -.502914190292D-07
     .946428604722D+00  .276468750000D+03  .213747649596D+00 -.850035407387D-08
     .155006456641D-09  .100000000000D+01  .188000000000D+04  .000000000000D+00
     .240000000000D+01  .000000000000D+00 -.372529029846D-08  .690000000000D+02
     .396006000000D+06  .400000000000D+01
 1 16  1 21 18  0  0.0  .971043482423D-05  .909494701773D-12  .000000000000D+00
     .990000000000D+02 -.247500000000D+02  .429160733410D-08  .597619394367D+00
    -.133737921715D-05  .498982111458D-02  .113528221846D-04  .515365944862D+04
     .410400000000D+06  .130385160446D-07  .949871128917D-01  .135973095894D-06
     .964046076572D+00  .164500000000D+03  .476719958786D+00 -.784604110482D-08
     .534307970357D-09  .100000000000D+01  .188000000000D+04  .000000000000D+00
     .240000000000D+01  .000000000000D+00  .512227416039D-08  .990000000000D+02
     .403206000000D+06  .400000000000D+01
 2 16  1 21 18  0  0.0  .599317718297D-03  .227373675443D-12  .000000000000D+00
     .230000000000D+02 -.407500000000D+02  .475019786481D-08  .111082634407D+01
    -.205449759960D-05  .152911375044D-01  .119116157293D-04  .515371452141D+04
     .410400000000D+06 -.216066837311D-06  .522323357779D-01  .160187482834D-06
     .942768666031D+00  .141062500000D+03 -.218162067952D+01 -.824605776712D-08
     .426803492364D-09  .100000000000D+01  .188000000000D+04  .000000000000D+00
     .240000000000D+01  .000000000000D+00 -.204890966415D-07  .230000000000D+02
     .403206000000D+06  .400000000000D+01
 3 16  1 21 18  0  0.0 -.145216472447D-04 -.500222085975D-11  .000000000000D+00
     .210000000000D+02  .746875000000D+01  .511842748876D-08 -.292134982035D+01
     .420957803726D-06  .313861994073D-03  .547431409359D-05  .515377194214D+04
     .410400000000D+06 -.372529029846D-08  .113583280594D+01 -.931322574615D-08
     .958919695631D+00  .276000000000D+03  .294781253817D+01 -.822677124947D-08
     .224295057075D-09  .100000000000D+01  .188000000000D+04  .000000000000D+00
     .240000000000D+01  .000000000000D+00  .186264514923D-08  .210000000000D+02
     .403206000000D+06  .400000000000D+01
 5 16  1 21 18  0  0.0 -.153296161443D-03  .352429196937D-11  .000000000000D+00
     .490000000000D+02  .135312500000D+02  .541558272362D-08 -.273567224787D+01
     .588595867157D-06  .457707152236D-02  .543892383575D-05  .515370639801D+04
     .410400000000D+06 -.409781932831D-07  .112561622056D+01 -.111758708954D-06
     .946047688649D+00  .268656250000D+03  .485546577421D+00 -.833570435840D-08
     .264653881039D-09  .100000000000D+01  .188000000000D+04  .000000000000D+00
     .240000000000D+01  .000000000000D+00 -.107102096081D-07  .490000000000D+02
     .403206000000D+06  .400000000000D+01
 6 16  1 21 18  0  0.0  .132839195430D-03  .613908923697D-11  .000000000000D+00
     .150000000000D+02 -.351250000000D+02  .418481717158D-08  .188259837060D+01
    -.174529850483D-05  .242972513661D-03  .116191804409D-04  .515362747383D+04
     .410400000000D+06 -.260770320892D-07  .865391311022D-01 -.372529029846D-08
     .963897897599D+00  .152781250000D+03 -.236168471495D+01 -.774246536190D-08
     .600739308918D-09  .100000000000D+01  .188000000000D+04  .000000000000D+00
     .240000000000D+01  .000000000000D+00  .419095158577D-08  .150000000000D+02
     .403206000000D+06  .400000000000D+01
 7 16  1 21 18  0  0.0  .472873914987D-03 -.147792889038D-11  .000000000000D+00
     .160000000000D+02  .128250000000D+03  .414445834761D-08 -.961506857477D-01
     .657886266708D-05  .903668650426D-02  .931508839130D-05  .515368754387D+04
     .410400000000D+06  .912696123123D-07 -.302897258093D+01  .838190317154D-07
     .968163762330D+00  .202562500000D+03 -.268040701373D+01 -.803069165340D-08
    -.292869342041D-10  .100000000000D+01  .188000000000D+04  .000000000000D+00
     .240000000000D+01  .000000000000D+00 -.111758708954D-07  .160000000000D+02
     .403206000000D+06  .400000000000D+01
 8 16  1 21 18  0  0.0 -.208844430745D-04 -.136424205266D-11  .000000000000D+00
     .720000000000D+02 -.118093750000D+03  .442447001122D-08 -.231161300531D+01
    -.611692667007D-05  .175638217479D-02  .610947608948D-05  .515363951111D+04
     .410400000000D+06  .372529029846D-07 -.964087428877D+00  .260770320892D-07
     .961863436444D+00  .260187500000D+03 -.145320343132D+01 -.812605276843D-08
    -.197865384745D-09  .100000000000D+01  .188000000000D+04  .000000000000D+00
     .240000000000D+01  .000000000000D+00  .465661287308D-08  .720000000000D+02
     .403206000000D+06  .400000000000D+01
 9 16  1 21 18  0  0.0  .546057708561D-04  .784439180279D-11  .000000000000D+00
     .600000000000D+02 -.111562500000D+02  .479055668877D-08  .271474720894D+01
    -.474974513054D-06  .613515148871D-03  .930577516556D-05  .515365085220D+04
     .410400000000D+06  .113621354103D-06  .217695461014D+01 -.409781932831D-07
     .955515887563D+00  .196593750000D+03  .190435582893D+01 -.805426406386D-08
    -.618954353362D-09  .100000000000D+01  .188000000000D+04  .000000000000D+00
     .240000000000D+01  .000000000000D+00  .139698386192D-08  .600000000000D+02
     .403206000000D+06  .400000000000D+01
10 16  1 21 18  0  0.0  .491472892463D-04 -.102318153949D-11  .000000000000D+00
     .450000000000D+02  .968750000000D+01  .503842415630D-08 -.148271910118D+01
     .437721610069D-06  .104835431557D-02  .537745654583D-05  .515367600250D+04
     .410400000000D+06  .465661287308D-07  .113171789680D+01  .391155481339D-07
     .959188574123D+00  .274531250000D+03 -.293898026974D+01 -.824534345165D-08
     .271439877989D-09  .100000000000D+01  .188000000000D+04  .000000000000D+00
     .240000000000D+01  .000000000000D+00  .232830643654D-08  .450000000000D+02
     .403206000000D+06  .400000000000D+01
